{"type": "FeatureCollection", "features": [ {"type": "Feature", "properties": {"norad_id": 43207, "name": "BEIDOU-3 M4 (C22)", "group": "beidou", "lat": -56.29217573257673, "lon": -13.185244681449333, "alt_km": 21536.26912979131, "timestamp": "2025-12-04T03:47:54.808595+00:00", "meta": {"OBJECT_NAME": "BEIDOU-3 M4 (C22)", "OBJECT_ID": "2018-018A", "EPOCH": "2025-12-02T03:19:43.852800", "MEAN_MOTION": 1.86230706, "ECCENTRICITY": 0.00040749, "INCLINATION": 56.4768, "RA_OF_ASC_NODE": 69.6557, "ARG_OF_PERICENTER": 15.1369, "MEAN_ANOMALY": 344.8773, "EPHEMERIS_TYPE": 0, "CLASSIFICATION_TYPE": "U", "NORAD_CAT_ID": 43207, "ELEMENT_SET_NO": 999, "REV_AT_EPOCH": 5307, "BSTAR": 0, "MEAN_MOTION_DOT": -4.5e-07, "MEAN_MOTION_DDOT": 0}, "tle": {"line1": "1 43207U 18018A   25336.13870200 -.00000045  00000+0  00000+0 0  9992", "line2": "2 43207  56.4768  69.6557 0004074  15.1369 344.8773  1.86230706 53076"}}, "geometry": {"type": "Point", "coordinates": [-13.185244681449333, -56.29217573257673]}}, {"type": "Feature", "properties": {"norad_id": 43208, "name": "BEIDOU-3 M3 (C21)", "group": "beidou", "lat": -39.23613094361942, "lon": -77.68887743803472, "alt_km": 21532.290428669963, "timestamp": "2025-12-04T03:47:54.808606+00:00", "meta": {"OBJECT_NAME": "BEIDOU-3 M3 (C21)", "OBJECT_ID": "2018-018B", "EPOCH": "2025-12-03T06:41:57.693408", "MEAN_MOTION": 1.86230862, "ECCENTRICITY": 0.0006282, "INCLINATION": 56.4772, "RA_OF_ASC_NODE": 69.6218, "ARG_OF_PERICENTER": 317.5873, "MEAN_ANOMALY": 42.3668, "EPHEMERIS_TYPE": 0, "CLASSIFICATION_TYPE": "U", "NORAD_CAT_ID": 43208, "ELEMENT_SET_NO": 999, "REV_AT_EPOCH": 5309, "BSTAR": 0, "MEAN_MOTION_DOT": -4.9e-07, "MEAN_MOTION_DDOT": 0}, "tle": {"line1": "1 43208U 18018B   25337.27913997 -.00000049  00000+0  00000+0 0  9994", "line2": "2 43208  56.4772  69.6218 0006282 317.5873  42.3668  1.86230862 53096"}}, "geometry": {"type": "Point", "coordinates": [-77.68887743803472, -39.23613094361942]}}, {"type": "Feature", "properties": {"norad_id": 43245, "name": "BEIDOU-3 M9 (C29)", "group": "beidou", "lat": 54.00785539919723, "lon": 27.426507208545303, "alt_km": 21527.034784531323, "timestamp": "2025-12-04T03:47:54.808617+00:00", "meta": {"OBJECT_NAME": "BEIDOU-3 M9 (C29)", "OBJECT_ID": "2018-029A", "EPOCH": "2025-12-01T08:20:14.784576", "MEAN_MOTION": 1.86227904, "ECCENTRICITY": 0.00017985, "INCLINATION": 54.3765, "RA_OF_ASC_NODE": 306.8658, "ARG_OF_PERICENTER": 272.1738, "MEAN_ANOMALY": 87.7976, "EPHEMERIS_TYPE": 0, "CLASSIFICATION_TYPE": "U", "NORAD_CAT_ID": 43245, "ELEMENT_SET_NO": 999, "REV_AT_EPOCH": 5221, "BSTAR": 0, "MEAN_MOTION_DOT": -5.8e-07, "MEAN_MOTION_DDOT": 0}, "tle": {"line1": "1 43245U 18029A   25335.34739334 -.00000058  00000+0  00000+0 0  9994", "line2": "2 43245  54.3765 306.8658 0001798 272.1738  87.7976  1.86227904 52214"}}, "geometry": {"type": "Point", "coordinates": [27.426507208545303, 54.00785539919723]}}, {"type": "Feature", "properties": {"norad_id": 43246, "name": "BEIDOU-3 M10 (C30)", "group": "beidou", "lat": 39.83398085494199, "lon": 90.04867302281583, "alt_km": 21530.3196766209, "timestamp": "2025-12-04T03:47:54.808628+00:00", "meta": {"OBJECT_NAME": "BEIDOU-3 M10 (C30)", "OBJECT_ID": "2018-029B", "EPOCH": "2025-12-02T08:33:31.669920", "MEAN_MOTION": 1.86228858, "ECCENTRICITY": 0.0003964, "INCLINATION": 54.3728, "RA_OF_ASC_NODE": 306.8573, "ARG_OF_PERICENTER": 359.3093, "MEAN_ANOMALY": 0.678, "EPHEMERIS_TYPE": 0, "CLASSIFICATION_TYPE": "U", "NORAD_CAT_ID": 43246, "ELEMENT_SET_NO": 999, "REV_AT_EPOCH": 5221, "BSTAR": 0, "MEAN_MOTION_DOT": -6.2e-07, "MEAN_MOTION_DDOT": 0}, "tle": {"line1": "1 43246U 18029B   25336.35661655 -.00000062  00000+0  00000+0 0  9992", "line2": "2 43246  54.3728 306.8573 0003964 359.3093   0.6780  1.86228858 52215"}}, "geometry": {"type": "Point", "coordinates": [90.04867302281583, 39.83398085494199]}}, {"type": "Feature", "properties": {"norad_id": 43539, "name": "BEIDOU-2 IGSO-7 (C16)", "group": "beidou", "lat": 52.8714102085508, "lon": -128.16219635275073, "alt_km": 36147.58617808169, "timestamp": "2025-12-04T03:47:54.808640+00:00", "meta": {"OBJECT_NAME": "BEIDOU-2 IGSO-7 (C16)", "OBJECT_ID": "2018-057A", "EPOCH": "2025-12-03T10:51:14.895936", "MEAN_MOTION": 1.00259551, "ECCENTRICITY": 0.009247, "INCLINATION": 55.1728, "RA_OF_ASC_NODE": 164.7534, "ARG_OF_PERICENTER": 235.1642, "MEAN_ANOMALY": 306.8485, "EPHEMERIS_TYPE": 0, "CLASSIFICATION_TYPE": "U", "NORAD_CAT_ID": 43539, "ELEMENT_SET_NO": 999, "REV_AT_EPOCH": 2716, "BSTAR": 0, "MEAN_MOTION_DOT": -2.5e-07, "MEAN_MOTION_DDOT": 0}, "tle": {"line1": "1 43539U 18057A   25337.45225574 -.00000025  00000+0  00000+0 0  9995", "line2": "2 43539  55.1728 164.7534 0092470 235.1642 306.8485  1.00259551 27167"}}, "geometry": {"type": "Point", "coordinates": [-128.16219635275073, 52.8714102085508]}}, {"type": "Feature", "properties": {"norad_id": 43581, "name": "BEIDOU-3 M5 (C23)", "group": "beidou", "lat": -18.27960521184324, "lon": 175.09443821519721, "alt_km": 21525.076743342466, "timestamp": "2025-12-04T03:47:54.808651+00:00", "meta": {"OBJECT_NAME": "BEIDOU-3 M5 (C23)", "OBJECT_ID": "2018-062A", "EPOCH": "2025-12-03T02:50:25.082304", "MEAN_MOTION": 1.86228529, "ECCENTRICITY": 0.0002116, "INCLINATION": 54.0891, "RA_OF_ASC_NODE": 188.971, "ARG_OF_PERICENTER": 350.4308, "MEAN_ANOMALY": 9.6608, "EPHEMERIS_TYPE": 0, "CLASSIFICATION_TYPE": "U", "NORAD_CAT_ID": 43581, "ELEMENT_SET_NO": 999, "REV_AT_EPOCH": 4998, "BSTAR": 0, "MEAN_MOTION_DOT": 1.18e-06, "MEAN_MOTION_DDOT": 0}, "tle": {"line1": "1 43581U 18062A   25337.11834586  .00000118  00000+0  00000+0 0  9992", "line2": "2 43581  54.0891 188.9710 0002116 350.4308   9.6608  1.86228529 49989"}}, "geometry": {"type": "Point", "coordinates": [175.09443821519721, -18.27960521184324]}}, {"type": "Feature", "properties": {"norad_id": 43582, "name": "BEIDOU-3 M6 (C24)", "group": "beidou", "lat": 49.153136081434674, "lon": -114.11512325809086, "alt_km": 21502.720133194543, "timestamp": "2025-12-04T03:47:54.808662+00:00", "meta": {"OBJECT_NAME": "BEIDOU-3 M6 (C24)", "OBJECT_ID": "2018-062B", "EPOCH": "2025-11-29T18:14:01.707936", "MEAN_MOTION": 1.86229617, "ECCENTRICITY": 0.00076529, "INCLINATION": 54.0888, "RA_OF_ASC_NODE": 189.0746, "ARG_OF_PERICENTER": 45.4041, "MEAN_ANOMALY": 314.7474, "EPHEMERIS_TYPE": 0, "CLASSIFICATION_TYPE": "U", "NORAD_CAT_ID": 43582, "ELEMENT_SET_NO": 999, "REV_AT_EPOCH": 4992, "BSTAR": 0, "MEAN_MOTION_DOT": 1.07e-06, "MEAN_MOTION_DDOT": 0}, "tle": {"line1": "1 43582U 18062B   25333.75974199  .00000107  00000+0  00000+0 0  9992", "line2": "2 43582  54.0888 189.0746 0007652  45.4041 314.7474  1.86229617 49926"}}, "geometry": {"type": "Point", "coordinates": [-114.11512325809086, 49.153136081434674]}}, {"type": "Feature", "properties": {"norad_id": 43602, "name": "BEIDOU-3 M12 (C26)", "group": "beidou", "lat": 49.2146775499941, "lon": -49.17743862552384, "alt_km": 21513.897535410368, "timestamp": "2025-12-04T03:47:54.808673+00:00", "meta": {"OBJECT_NAME": "BEIDOU-3 M12 (C26)", "OBJECT_ID": "2018-067A", "EPOCH": "2025-12-03T10:56:51.619200", "MEAN_MOTION": 1.86227629, "ECCENTRICITY": 0.0009145, "INCLINATION": 54.1831, "RA_OF_ASC_NODE": 187.6784, "ARG_OF_PERICENTER": 40.5353, "MEAN_ANOMALY": 319.6266, "EPHEMERIS_TYPE": 0, "CLASSIFICATION_TYPE": "U", "NORAD_CAT_ID": 43602, "ELEMENT_SET_NO": 999, "REV_AT_EPOCH": 4947, "BSTAR": 0, "MEAN_MOTION_DOT": 1.16e-06, "MEAN_MOTION_DDOT": 0}, "tle": {"line1": "1 43602U 18067A   25337.45615300  .00000116  00000+0  00000+0 0  9997", "line2": "2 43602  54.1831 187.6784 0009145  40.5353 319.6266  1.86227629 49479"}}, "geometry": {"type": "Point", "coordinates": [-49.17743862552384, 49.2146775499941]}}, {"type": "Feature", "properties": {"norad_id": 43603, "name": "BEIDOU-3 M11 (C25)", "group": "beidou", "lat": 16.564437274733994, "lon": -159.96635899259445, "alt_km": 21511.51401448626, "timestamp": "2025-12-04T03:47:54.808684+00:00", "meta": {"OBJECT_NAME": "BEIDOU-3 M11 (C25)", "OBJECT_ID": "2018-067B", "EPOCH": "2025-12-03T01:17:17.799072", "MEAN_MOTION": 1.86227129, "ECCENTRICITY": 0.0005566, "INCLINATION": 54.1806, "RA_OF_ASC_NODE": 187.6562, "ARG_OF_PERICENTER": 36.1126, "MEAN_ANOMALY": 324.0194, "EPHEMERIS_TYPE": 0, "CLASSIFICATION_TYPE": "U", "NORAD_CAT_ID": 43603, "ELEMENT_SET_NO": 999, "REV_AT_EPOCH": 4949, "BSTAR": 0, "MEAN_MOTION_DOT": 1.19e-06, "MEAN_MOTION_DDOT": 0}, "tle": {"line1": "1 43603U 18067B   25337.05367823  .00000119  00000+0  00000+0 0  9991", "line2": "2 43603  54.1806 187.6562 0005566  36.1126 324.0194  1.86227129 49495"}}, "geometry": {"type": "Point", "coordinates": [-159.96635899259445, 16.564437274733994]}}, {"type": "Feature", "properties": {"norad_id": 43622, "name": "BEIDOU-3 M13 (C32)", "group": "beidou", "lat": 39.50614071046785, "lon": 102.21656868505329, "alt_km": 21528.99555847749, "timestamp": "2025-12-04T03:47:54.808696+00:00", "meta": {"OBJECT_NAME": "BEIDOU-3 M13 (C32)", "OBJECT_ID": "2018-072A", "EPOCH": "2025-12-03T13:07:53.541408", "MEAN_MOTION": 1.86230692, "ECCENTRICITY": 0.0005674, "INCLINATION": 56.4512, "RA_OF_ASC_NODE": 69.1249, "ARG_OF_PERICENTER": 298.6305, "MEAN_ANOMALY": 61.3164, "EPHEMERIS_TYPE": 0, "CLASSIFICATION_TYPE": "U", "NORAD_CAT_ID": 43622, "ELEMENT_SET_NO": 999, "REV_AT_EPOCH": 4901, "BSTAR": 0, "MEAN_MOTION_DOT": -5e-07, "MEAN_MOTION_DDOT": 0}, "tle": {"line1": "1 43622U 18072A   25337.54714747 -.00000050  00000+0  00000+0 0  9998", "line2": "2 43622  56.4512  69.1249 0005674 298.6305  61.3164  1.86230692 49010"}}, "geometry": {"type": "Point", "coordinates": [102.21656868505329, 39.50614071046785]}}]}